<?xml version="1.0"?>
<gpx xmlns="http://www.topografix.com/GPX/1/1" xmlns:gpxx="http://www.garmin.com/xmlschemas/GpxExtensions/v3" creator="CALTOPO" version="1.1"><metadata><name><![CDATA[CinderCones Trail]]></name></metadata><trk><name>CinderCones Trail</name><trkseg><trkpt lat="39.076940565093096" lon="-120.23506774127624"/><trkpt lat="39.076934839819664" lon="-120.23509064252372"/><trkpt lat="39.076934839815216" lon="-120.2350906425237"/><trkpt lat="39.076926487628754" lon="-120.23512405146786"/><trkpt lat="39.076926487628754" lon="-120.23512405146786"/><trkpt lat="39.07698" lon="-120.23509"/><trkpt lat="39.0772" lon="-120.23514"/><trkpt lat="39.07731" lon="-120.23524"/><trkpt lat="39.07734" lon="-120.23541"/><trkpt lat="39.07744" lon="-120.23559"/><trkpt lat="39.07747" lon="-120.23571"/><trkpt lat="39.07729" lon="-120.23605"/><trkpt lat="39.07723" lon="-120.23647"/><trkpt lat="39.0769" lon="-120.237"/><trkpt lat="39.07669" lon="-120.23754"/><trkpt lat="39.07669" lon="-120.23771"/><trkpt lat="39.0768" lon="-120.23856"/><trkpt lat="39.07688" lon="-120.23875"/><trkpt lat="39.07757" lon="-120.2398"/><trkpt lat="39.07764" lon="-120.24"/><trkpt lat="39.07794" lon="-120.2405"/><trkpt lat="39.07796" lon="-120.24061"/><trkpt lat="39.07794" lon="-120.24084"/><trkpt lat="39.07779" lon="-120.24128"/><trkpt lat="39.0778" lon="-120.24166"/><trkpt lat="39.07787" lon="-120.24189"/><trkpt lat="39.07789" lon="-120.24201"/><trkpt lat="39.07788" lon="-120.24214"/><trkpt lat="39.07783" lon="-120.24223"/><trkpt lat="39.07783" lon="-120.24232"/><trkpt lat="39.07789" lon="-120.24247"/><trkpt lat="39.07875" lon="-120.24342"/><trkpt lat="39.07891" lon="-120.24352"/><trkpt lat="39.07891" lon="-120.24352"/><trkpt lat="39.07905" lon="-120.24362"/><trkpt lat="39.07918" lon="-120.24361"/><trkpt lat="39.07951" lon="-120.24351"/><trkpt lat="39.07956" lon="-120.24366"/><trkpt lat="39.07966" lon="-120.24406"/><trkpt lat="39.07973" lon="-120.24422"/><trkpt lat="39.07986" lon="-120.24441"/><trkpt lat="39.08011" lon="-120.24463"/><trkpt lat="39.08049" lon="-120.24481"/><trkpt lat="39.08074" lon="-120.24499"/><trkpt lat="39.08138" lon="-120.24533"/><trkpt lat="39.08165" lon="-120.2454"/><trkpt lat="39.08189" lon="-120.24536"/><trkpt lat="39.08198" lon="-120.24536"/><trkpt lat="39.08209" lon="-120.2454"/><trkpt lat="39.08216" lon="-120.24551"/><trkpt lat="39.08221" lon="-120.24573"/><trkpt lat="39.08223" lon="-120.24607"/><trkpt lat="39.08209" lon="-120.24651"/><trkpt lat="39.08208" lon="-120.24659"/><trkpt lat="39.08219" lon="-120.24663"/><trkpt lat="39.0824" lon="-120.2466"/><trkpt lat="39.08256" lon="-120.24652"/><trkpt lat="39.08286" lon="-120.24658"/><trkpt lat="39.08306" lon="-120.24653"/><trkpt lat="39.08312" lon="-120.24656"/><trkpt lat="39.08335" lon="-120.24689"/><trkpt lat="39.08341" lon="-120.24707"/><trkpt lat="39.08353" lon="-120.2473"/><trkpt lat="39.08357" lon="-120.24743"/><trkpt lat="39.08358" lon="-120.24765"/><trkpt lat="39.08352" lon="-120.2478"/><trkpt lat="39.08355" lon="-120.24791"/><trkpt lat="39.08369" lon="-120.24808"/><trkpt lat="39.08407" lon="-120.24807"/><trkpt lat="39.08442" lon="-120.24801"/><trkpt lat="39.08447" lon="-120.24791"/><trkpt lat="39.08453" lon="-120.24784"/><trkpt lat="39.08465" lon="-120.24782"/><trkpt lat="39.08478" lon="-120.24785"/><trkpt lat="39.08483" lon="-120.24779"/><trkpt lat="39.08499" lon="-120.24778"/><trkpt lat="39.08515" lon="-120.24763"/><trkpt lat="39.08515" lon="-120.24756"/><trkpt lat="39.08518" lon="-120.24748"/><trkpt lat="39.08539" lon="-120.24728"/><trkpt lat="39.08582" lon="-120.24724"/><trkpt lat="39.08609" lon="-120.24714"/><trkpt lat="39.08646" lon="-120.24686"/><trkpt lat="39.08663" lon="-120.24668"/><trkpt lat="39.08677" lon="-120.24647"/><trkpt lat="39.08687" lon="-120.24625"/><trkpt lat="39.08691" lon="-120.24621"/><trkpt lat="39.08706" lon="-120.24617"/><trkpt lat="39.08715" lon="-120.2461"/><trkpt lat="39.08773" lon="-120.24531"/><trkpt lat="39.08786" lon="-120.24519"/><trkpt lat="39.08822" lon="-120.24499"/><trkpt lat="39.08849" lon="-120.24474"/><trkpt lat="39.0885961386426" lon="-120.24459737619898"/><trkpt lat="39.08859" lon="-120.24459"/><trkpt lat="39.08891" lon="-120.24371"/><trkpt lat="39.08889" lon="-120.24357"/><trkpt lat="39.08880999999999" lon="-120.2434"/></trkseg></trk></gpx>